{"spkid": "50585493", "covariance": {"labels": ["e", "q", "tp", "node", "peri", "i"], "data": [["1.193252863022508E-13", "-2.861534569475344E-13", "-1.956846017916925E-11", "-2.948559482722034E-11", "-3.148002200080405E-12", "6.006035828925687E-12"], ["-2.861534569475344E-13", "6.864066050987029E-13", "4.683323740368587E-11", "7.052393559239457E-11", "7.719693947280732E-12", "-1.436882237426418E-11"], ["-1.956846017916925E-11", "4.683323740368587E-11", "3.542839884309178E-9", "5.284779479722402E-9", "1.994745992099078E-10", "-1.083328840959405E-9"], ["-2.948559482722034E-11", "7.052393559239457E-11", "5.284779479722402E-9", "2.720568172356137E-8", "-1.898799099578761E-8", "-2.962204798154351E-9"], ["-3.148002200080405E-12", "7.719693947280732E-12", "1.994745992099078E-10", "-1.898799099578761E-8", "1.979375086664841E-8", "1.292682372361118E-9"], ["6.006035828925687E-12", "-1.436882237426418E-11", "-1.083328840959405E-9", "-2.962204798154351E-9", "1.292682372361118E-9", "4.781189723401557E-10"]], "elements": [{"label": "e", "units": null, "value": ".6742154486196699", "title": "eccentricity", "sigma": 3.45434923396941e-07, "name": "e"}, {"name": "q", "sigma": 8.2849659329336e-07, "title": "perihelion distance", "value": ".7870553275848879", "units": "au", "label": "q"}, {"label": "tp", "name": "tp", "sigma": 5.95217597548088e-05, "units": "TDB", "value": "2455831.086251074727", "title": "time of perihelion passage"}, {"units": "deg", "title": "longitude of the ascending node", "value": "304.4309827334442", "sigma": 0.000164941449379958, "name": "om", "label": "node"}, {"label": "peri", "sigma": 0.000140690265713902, "name": "w", "units": "deg", "title": "argument of perihelion", "value": "52.15866619433159"}, {"label": "i", "title": "inclination", "value": "4.761083508348116", "units": "deg", "sigma": 2.18659317738841e-05, "name": "i"}], "epoch": "2456208.5"}, "elements": [{"label": "e", "name": "e", "sigma": "3.5851E-7", "title": "eccentricity", "value": ".670336406105867", "units": null}, {"label": "a", "sigma": "3.5864E-8", "name": "a", "units": "au", "title": "semi-major axis", "value": "2.42209903326384"}, {"label": "q", "title": "perihelion distance", "value": ".7984778720732629", "units": "au", "name": "q", "sigma": "8.6841E-7"}, {"label": "i", "units": "deg", "title": "inclination; angle with respect to x-y ecliptic plane", "value": "4.715791687703715", "sigma": "2.1934E-5", "name": "i"}, {"label": "node", "title": "longitude of the ascending node", "value": "303.6345962468072", "units": "deg", "name": "om", "sigma": ".00016334"}, {"value": "52.99989141050553", "title": "argument of perihelion", "units": "deg", "name": "w", "sigma": ".0001421", "label": "peri"}, {"sigma": "3.5454E-5", "name": "ma", "title": "mean anomaly", "value": "325.5539764122565", "units": "deg", "label": "M"}, {"label": "tp", "name": "tp", "sigma": ".00013832", "title": "time of perihelion passage", "value": "2461332.241579252763", "units": "TDB"}, {"label": "period", "value": "1376.848866464511", "title": "sidereal orbital period", "units": "d", "name": "per", "sigma": "3.058E-5"}, {"value": ".2614666059350525", "title": "mean motion", "units": "deg/d", "sigma": "5.8073E-9", "name": "n", "label": "n"}, {"units": "au", "value": "4.045720194454418", "title": "aphelion distance", "sigma": "5.9904E-8", "name": "ad", "label": "Q"}], "epoch": "2461200.5"}